{"epoch":1784799577,"count":18318,"objects":[{"id":"66664","name":"SOYUZ MS-28","type":"PAYLOAD","l1":"1 66664U 25275A   26203.79832414  .00009714  00000-0  18351-3 0  9992","l2":"2 66664  51.6313 123.8641 0006897 326.7338  33.3216 15.49102905576750"},{"id":"67796","name":"DRAGON FREEDOM 3","type":"PAYLOAD","l1":"1 67796U 26031A   26203.79832414  .00009714  00000-0  18351-3 0  9990","l2":"2 67796  51.6313 123.8641 0006897 326.7338  33.3216 15.49102905576960"},{"id":"69180","name":"SZ-23","type":"PAYLOAD","l1":"1 69180U 26113A   26203.45756980  .00010144  00000-0  13442-3 0  9991","l2":"2 69180  41.4671 107.8074 0001200 305.3687  54.7038 15.58249100298181"},{"id":"100057","name":"SOYUZ MS-29","type":"PAYLOAD","l1":"1 A0057U 26162A   26203.79832414  .00009714  00000-0  18351-3 0  9992","l2":"2 A0057  51.6313 123.8641 0006897 326.7338  33.3216 15.49102905576912"}]}