{"fetched_at":"2026-07-23T07:05:27.638Z","source":"https://celestrak.org/NORAD/elements/gp.php?GROUP=stations&FORMAT=JSON","constellation":"crewed-vehicles","records":[{"OBJECT_NAME":"SOYUZ-MS 28","OBJECT_ID":"2025-275A","EPOCH":"2026-07-22T19:09:35.205696","CLASSIFICATION_TYPE":"U","MEAN_MOTION":15.49102905,"ECCENTRICITY":0.00068971,"INCLINATION":51.6313,"RA_OF_ASC_NODE":123.8641,"ARG_OF_PERICENTER":326.7338,"MEAN_ANOMALY":33.3216,"EPHEMERIS_TYPE":0,"NORAD_CAT_ID":66664,"ELEMENT_SET_NO":999,"REV_AT_EPOCH":57675,"BSTAR":0.00018351277,"MEAN_MOTION_DOT":0.00009714,"MEAN_MOTION_DDOT":0},{"OBJECT_NAME":"CREW DRAGON 12","OBJECT_ID":"2026-031A","EPOCH":"2026-07-22T19:09:35.205696","CLASSIFICATION_TYPE":"U","MEAN_MOTION":15.49102905,"ECCENTRICITY":0.00068971,"INCLINATION":51.6313,"RA_OF_ASC_NODE":123.8641,"ARG_OF_PERICENTER":326.7338,"MEAN_ANOMALY":33.3216,"EPHEMERIS_TYPE":0,"NORAD_CAT_ID":67796,"ELEMENT_SET_NO":999,"REV_AT_EPOCH":57696,"BSTAR":0.00018351277,"MEAN_MOTION_DOT":0.00009714,"MEAN_MOTION_DDOT":0},{"OBJECT_NAME":"SHENZHOU-23 (SZ-23)","OBJECT_ID":"2026-113A","EPOCH":"2026-07-22T10:58:54.030720","CLASSIFICATION_TYPE":"U","MEAN_MOTION":15.582491,"ECCENTRICITY":0.00011997,"INCLINATION":41.4671,"RA_OF_ASC_NODE":107.8074,"ARG_OF_PERICENTER":305.3687,"MEAN_ANOMALY":54.7038,"EPHEMERIS_TYPE":0,"NORAD_CAT_ID":69180,"ELEMENT_SET_NO":999,"REV_AT_EPOCH":29818,"BSTAR":0.00013441968,"MEAN_MOTION_DOT":0.00010144,"MEAN_MOTION_DDOT":0},{"OBJECT_NAME":"SOYUZ-MS 29","OBJECT_ID":"2026-162A","EPOCH":"2026-07-22T19:09:35.205696","CLASSIFICATION_TYPE":"U","MEAN_MOTION":15.49102905,"ECCENTRICITY":0.00068971,"INCLINATION":51.6313,"RA_OF_ASC_NODE":123.8641,"ARG_OF_PERICENTER":326.7338,"MEAN_ANOMALY":33.3216,"EPHEMERIS_TYPE":0,"NORAD_CAT_ID":100057,"ELEMENT_SET_NO":999,"REV_AT_EPOCH":57691,"BSTAR":0.00018351277,"MEAN_MOTION_DOT":0.00009714,"MEAN_MOTION_DDOT":0}]}
